[{"CCSDS_OMM_VERS":"2.0","COMMENT":"GENERATED VIA SPACE-TRACK.ORG API","CREATION_DATE":"2020-06-13T22:56:09","ORIGINATOR":"18 SPCS","OBJECT_NAME":"ONEWEB-0027","OBJECT_ID":"2020-020J","CENTER_NAME":"EARTH","REF_FRAME":"TEME","TIME_SYSTEM":"UTC","MEAN_ELEMENT_THEORY":"SGP4","EPOCH":"2020-06-13T22:00:00.999936","MEAN_MOTION":"14.89835705","ECCENTRICITY":"0.00264710","INCLINATION":"87.5635","RA_OF_ASC_NODE":"111.0076","ARG_OF_PERICENTER":"358.8544","MEAN_ANOMALY":"248.0588","EPHEMERIS_TYPE":"0","CLASSIFICATION_TYPE":"U","NORAD_CAT_ID":"45432","ELEMENT_SET_NO":"999","REV_AT_EPOCH":"1272","BSTAR":"-0.00473550000000","MEAN_MOTION_DOT":"-0.00045386","MEAN_MOTION_DDOT":"0.0000000000000","SEMIMAJOR_AXIS":"6976.585","PERIOD":"96.654","APOAPSIS":"616.918","PERIAPSIS":"579.982","OBJECT_TYPE":"PAYLOAD","RCS_SIZE":"MEDIUM","COUNTRY_CODE":"UK","LAUNCH_DATE":"2020-03-21","SITE":"TTMTR","DECAY_DATE":null,"FILE":"2764845","GP_ID":"155613960","TLE_LINE0":"0 ONEWEB-0027","TLE_LINE1":"1 45432U 20020J   20165.91667824 -.00045386  00000-0 -47355-2 0  9993","TLE_LINE2":"2 45432  87.5635 111.0076 0026471 358.8544 248.0588 14.89835705 12724"},{"CCSDS_OMM_VERS":"2.0","COMMENT":"GENERATED VIA SPACE-TRACK.ORG API","CREATION_DATE":"2020-06-14T03:36:09","ORIGINATOR":"18 SPCS","OBJECT_NAME":"ONEWEB-0027","OBJECT_ID":"2020-020J","CENTER_NAME":"EARTH","REF_FRAME":"TEME","TIME_SYSTEM":"UTC","MEAN_ELEMENT_THEORY":"SGP4","EPOCH":"2020-06-14T02:00:01.000224","MEAN_MOTION":"14.89810335","ECCENTRICITY":"0.00264850","INCLINATION":"87.5635","RA_OF_ASC_NODE":"110.9554","ARG_OF_PERICENTER":"358.1846","MEAN_ANOMALY":"62.0270","EPHEMERIS_TYPE":"0","CLASSIFICATION_TYPE":"U","NORAD_CAT_ID":"45432","ELEMENT_SET_NO":"999","REV_AT_EPOCH":"1275","BSTAR":"-0.00170380000000","MEAN_MOTION_DOT":"-0.00016368","MEAN_MOTION_DDOT":"0.0000000000000","SEMIMAJOR_AXIS":"6976.664","PERIOD":"96.656","APOAPSIS":"617.007","PERIAPSIS":"580.052","OBJECT_TYPE":"PAYLOAD","RCS_SIZE":"MEDIUM","COUNTRY_CODE":"UK","LAUNCH_DATE":"2020-03-21","SITE":"TTMTR","DECAY_DATE":null,"FILE":"2764882","GP_ID":"155635157","TLE_LINE0":"0 ONEWEB-0027","TLE_LINE1":"1 45432U 20020J   20166.08334491 -.00016368  00000-0 -17038-2 0  9996","TLE_LINE2":"2 45432  87.5635 110.9554 0026485 358.1846  62.0270 14.89810335 12753"},{"CCSDS_OMM_VERS":"2.0","COMMENT":"GENERATED VIA SPACE-TRACK.ORG API","CREATION_DATE":"2020-06-14T03:36:09","ORIGINATOR":"18 SPCS","OBJECT_NAME":"ONEWEB-0027","OBJECT_ID":"2020-020J","CENTER_NAME":"EARTH","REF_FRAME":"TEME","TIME_SYSTEM":"UTC","MEAN_ELEMENT_THEORY":"SGP4","EPOCH":"2020-06-14T02:00:01.000224","MEAN_MOTION":"14.89810335","ECCENTRICITY":"0.00264850","INCLINATION":"87.5635","RA_OF_ASC_NODE":"110.9554","ARG_OF_PERICENTER":"358.1846","MEAN_ANOMALY":"62.0270","EPHEMERIS_TYPE":"0","CLASSIFICATION_TYPE":"U","NORAD_CAT_ID":"45432","ELEMENT_SET_NO":"999","REV_AT_EPOCH":"1275","BSTAR":"-0.00170380000000","MEAN_MOTION_DOT":"-0.00016368","MEAN_MOTION_DDOT":"0.0000000000000","SEMIMAJOR_AXIS":"6976.664","PERIOD":"96.656","APOAPSIS":"617.007","PERIAPSIS":"580.052","OBJECT_TYPE":"PAYLOAD","RCS_SIZE":"MEDIUM","COUNTRY_CODE":"UK","LAUNCH_DATE":"2020-03-21","SITE":"TTMTR","DECAY_DATE":null,"FILE":"2764892","GP_ID":"155635289","TLE_LINE0":"0 ONEWEB-0027","TLE_LINE1":"1 45432U 20020J   20166.08334491 -.00016368  00000-0 -17038-2 0  9996","TLE_LINE2":"2 45432  87.5635 110.9554 0026485 358.1846  62.0270 14.89810335 12753"},{"CCSDS_OMM_VERS":"2.0","COMMENT":"GENERATED VIA SPACE-TRACK.ORG API","CREATION_DATE":"2020-06-14T05:36:10","ORIGINATOR":"18 SPCS","OBJECT_NAME":"ONEWEB-0027","OBJECT_ID":"2020-020J","CENTER_NAME":"EARTH","REF_FRAME":"TEME","TIME_SYSTEM":"UTC","MEAN_ELEMENT_THEORY":"SGP4","EPOCH":"2020-06-14T04:00:00.999936","MEAN_MOTION":"14.89782211","ECCENTRICITY":"0.00264950","INCLINATION":"87.5635","RA_OF_ASC_NODE":"110.9296","ARG_OF_PERICENTER":"357.9232","MEAN_ANOMALY":"148.9382","EPHEMERIS_TYPE":"0","CLASSIFICATION_TYPE":"U","NORAD_CAT_ID":"45432","ELEMENT_SET_NO":"999","REV_AT_EPOCH":"1276","BSTAR":"0.00431670000000","MEAN_MOTION_DOT":"0.00041878","MEAN_MOTION_DDOT":"0.0000000000000","SEMIMAJOR_AXIS":"6976.752","PERIOD":"96.658","APOAPSIS":"617.102","PERIAPSIS":"580.132","OBJECT_TYPE":"PAYLOAD","RCS_SIZE":"MEDIUM","COUNTRY_CODE":"UK","LAUNCH_DATE":"2020-03-21","SITE":"TTMTR","DECAY_DATE":null,"FILE":"2764913","GP_ID":"155635587","TLE_LINE0":"0 ONEWEB-0027","TLE_LINE1":"1 45432U 20020J   20166.16667824  .00041878  00000-0  43167-2 0  9998","TLE_LINE2":"2 45432  87.5635 110.9296 0026495 357.9232 148.9382 14.89782211 12763"},{"CCSDS_OMM_VERS":"2.0","COMMENT":"GENERATED VIA SPACE-TRACK.ORG API","CREATION_DATE":"2020-06-14T16:27:11","ORIGINATOR":"18 SPCS","OBJECT_NAME":"ONEWEB-0027","OBJECT_ID":"2020-020J","CENTER_NAME":"EARTH","REF_FRAME":"TEME","TIME_SYSTEM":"UTC","MEAN_ELEMENT_THEORY":"SGP4","EPOCH":"2020-06-14T06:00:00.999648","MEAN_MOTION":"14.89777766","ECCENTRICITY":"0.00265030","INCLINATION":"87.5634","RA_OF_ASC_NODE":"110.9038","ARG_OF_PERICENTER":"357.7287","MEAN_ANOMALY":"235.7722","EPHEMERIS_TYPE":"0","CLASSIFICATION_TYPE":"U","NORAD_CAT_ID":"45432","ELEMENT_SET_NO":"999","REV_AT_EPOCH":"177","BSTAR":"0.00648530000000","MEAN_MOTION_DOT":"0.00063084","MEAN_MOTION_DDOT":"0.0000000000000","SEMIMAJOR_AXIS":"6976.766","PERIOD":"96.658","APOAPSIS":"617.121","PERIAPSIS":"580.140","OBJECT_TYPE":"PAYLOAD","RCS_SIZE":"MEDIUM","COUNTRY_CODE":"UK","LAUNCH_DATE":"2020-03-21","SITE":"TTMTR","DECAY_DATE":null,"FILE":"2765335","GP_ID":"155664577","TLE_LINE0":"0 ONEWEB-0027","TLE_LINE1":"1 45432U 20020J   20166.25001157 +.00063084 +00000-0 +64853-2 0  9997","TLE_LINE2":"2 45432 087.5634 110.9038 0026503 357.7287 235.7722 14.89777766001775"},{"CCSDS_OMM_VERS":"2.0","COMMENT":"GENERATED VIA SPACE-TRACK.ORG API","CREATION_DATE":"2020-06-14T09:46:09","ORIGINATOR":"18 SPCS","OBJECT_NAME":"ONEWEB-0027","OBJECT_ID":"2020-020J","CENTER_NAME":"EARTH","REF_FRAME":"TEME","TIME_SYSTEM":"UTC","MEAN_ELEMENT_THEORY":"SGP4","EPOCH":"2020-06-14T08:00:01.999872","MEAN_MOTION":"14.89805778","ECCENTRICITY":"0.00264630","INCLINATION":"87.5634","RA_OF_ASC_NODE":"110.8781","ARG_OF_PERICENTER":"357.4470","MEAN_ANOMALY":"322.7466","EPHEMERIS_TYPE":"0","CLASSIFICATION_TYPE":"U","NORAD_CAT_ID":"45432","ELEMENT_SET_NO":"999","REV_AT_EPOCH":"1278","BSTAR":"0.00159750000000","MEAN_MOTION_DOT":"0.00015467","MEAN_MOTION_DDOT":"0.0000000000000","SEMIMAJOR_AXIS":"6976.678","PERIOD":"96.656","APOAPSIS":"617.006","PERIAPSIS":"580.081","OBJECT_TYPE":"PAYLOAD","RCS_SIZE":"MEDIUM","COUNTRY_CODE":"UK","LAUNCH_DATE":"2020-03-21","SITE":"TTMTR","DECAY_DATE":null,"FILE":"2765111","GP_ID":"155640172","TLE_LINE0":"0 ONEWEB-0027","TLE_LINE1":"1 45432U 20020J   20166.33335648  .00015467  00000-0  15975-2 0  9994","TLE_LINE2":"2 45432  87.5634 110.8781 0026463 357.4470 322.7466 14.89805778 12785"},{"CCSDS_OMM_VERS":"2.0","COMMENT":"GENERATED VIA SPACE-TRACK.ORG API","CREATION_DATE":"2020-06-14T09:56:09","ORIGINATOR":"18 SPCS","OBJECT_NAME":"ONEWEB-0027","OBJECT_ID":"2020-020J","CENTER_NAME":"EARTH","REF_FRAME":"TEME","TIME_SYSTEM":"UTC","MEAN_ELEMENT_THEORY":"SGP4","EPOCH":"2020-06-14T08:00:01.999872","MEAN_MOTION":"14.89805778","ECCENTRICITY":"0.00264630","INCLINATION":"87.5634","RA_OF_ASC_NODE":"110.8781","ARG_OF_PERICENTER":"357.4470","MEAN_ANOMALY":"322.7466","EPHEMERIS_TYPE":"0","CLASSIFICATION_TYPE":"U","NORAD_CAT_ID":"45432","ELEMENT_SET_NO":"999","REV_AT_EPOCH":"1278","BSTAR":"0.00159750000000","MEAN_MOTION_DOT":"0.00015467","MEAN_MOTION_DDOT":"0.0000000000000","SEMIMAJOR_AXIS":"6976.678","PERIOD":"96.656","APOAPSIS":"617.006","PERIAPSIS":"580.081","OBJECT_TYPE":"PAYLOAD","RCS_SIZE":"MEDIUM","COUNTRY_CODE":"UK","LAUNCH_DATE":"2020-03-21","SITE":"TTMTR","DECAY_DATE":null,"FILE":"2765126","GP_ID":"155640362","TLE_LINE0":"0 ONEWEB-0027","TLE_LINE1":"1 45432U 20020J   20166.33335648  .00015467  00000-0  15975-2 0  9994","TLE_LINE2":"2 45432  87.5634 110.8781 0026463 357.4470 322.7466 14.89805778 12785"},{"CCSDS_OMM_VERS":"2.0","COMMENT":"GENERATED VIA SPACE-TRACK.ORG API","CREATION_DATE":"2020-06-14T13:46:09","ORIGINATOR":"18 SPCS","OBJECT_NAME":"ONEWEB-0027","OBJECT_ID":"2020-020J","CENTER_NAME":"EARTH","REF_FRAME":"TEME","TIME_SYSTEM":"UTC","MEAN_ELEMENT_THEORY":"SGP4","EPOCH":"2020-06-14T12:00:00.999648","MEAN_MOTION":"14.89835275","ECCENTRICITY":"0.00263880","INCLINATION":"87.5634","RA_OF_ASC_NODE":"110.8275","ARG_OF_PERICENTER":"357.0855","MEAN_ANOMALY":"136.3253","EPHEMERIS_TYPE":"0","CLASSIFICATION_TYPE":"U","NORAD_CAT_ID":"45432","ELEMENT_SET_NO":"999","REV_AT_EPOCH":"1281","BSTAR":"-0.00623750000000","MEAN_MOTION_DOT":"-0.00059668","MEAN_MOTION_DDOT":"0.0000000000000","SEMIMAJOR_AXIS":"6976.586","PERIOD":"96.654","APOAPSIS":"616.861","PERIAPSIS":"580.042","OBJECT_TYPE":"PAYLOAD","RCS_SIZE":"MEDIUM","COUNTRY_CODE":"UK","LAUNCH_DATE":"2020-03-21","SITE":"TTMTR","DECAY_DATE":null,"FILE":"2765168","GP_ID":"155641311","TLE_LINE0":"0 ONEWEB-0027","TLE_LINE1":"1 45432U 20020J   20166.50001157 -.00059668  00000-0 -62375-2 0  9997","TLE_LINE2":"2 45432  87.5634 110.8275 0026388 357.0855 136.3253 14.89835275 12814"}]